{
    "links": {
        "self": "http://www.neowsapp.com/rest/v1/neo/3789078?api_key=iIulBulltgU6a56xZRHN4H3l9WmuAYTsLGpBGhQ2"
    },
    "id": "3789078",
    "neo_reference_id": "3789078",
    "name": "(2017 UP51)",
    "designation": "2017 UP51",
    "nasa_jpl_url": "http://ssd.jpl.nasa.gov/sbdb.cgi?sstr=3789078",
    "absolute_magnitude_h": 23.4,
    "estimated_diameter": {
        "kilometers": {
            "estimated_diameter_min": 0.0555334912,
            "estimated_diameter_max": 0.1241766613
        },
        "meters": {
            "estimated_diameter_min": 55.5334911581,
            "estimated_diameter_max": 124.1766612574
        },
        "miles": {
            "estimated_diameter_min": 0.0345069009,
            "estimated_diameter_max": 0.0771597762
        },
        "feet": {
            "estimated_diameter_min": 182.1964991311,
            "estimated_diameter_max": 407.4037573197
        }
    },
    "is_potentially_hazardous_asteroid": false,
    "close_approach_data": [
        {
            "close_approach_date": "2017-11-04",
            "close_approach_date_full": "2017-Nov-04 13:19",
            "epoch_date_close_approach": 1509801540000,
            "relative_velocity": {
                "kilometers_per_second": "6.4229341403",
                "kilometers_per_hour": "23122.5629051146",
                "miles_per_hour": "14367.4613784585"
            },
            "miss_distance": {
                "astronomical": "0.2599558766",
                "lunar": "101.1228359974",
                "kilometers": "38888845.433342842",
                "miles": "24164408.0337895396"
            },
            "orbiting_body": "Earth"
        }
    ],
    "orbital_data": {
        "orbit_id": "2",
        "orbit_determination_date": "2017-12-21 06:28:23",
        "first_observation_date": "2017-10-28",
        "last_observation_date": "2017-11-27",
        "data_arc_in_days": 30,
        "observations_used": 16,
        "orbit_uncertainty": "8",
        "minimum_orbit_intersection": ".25756",
        "jupiter_tisserand_invariant": "3.747",
        "epoch_osculation": "2458056.5",
        "eccentricity": ".3702514408119684",
        "semi_major_axis": "1.982191713736249",
        "inclination": "11.83180416518991",
        "ascending_node_longitude": "37.56892724665499",
        "orbital_period": "1019.334941013902",
        "perihelion_distance": "1.248282375759858",
        "perihelion_argument": "7.48569027259545",
        "aphelion_distance": "2.71610105171264",
        "perihelion_time": "2458063.493387771955",
        "mean_anomaly": "357.5301350943591",
        "mean_motion": ".3531714508304",
        "equinox": "J2000",
        "orbit_class": {
            "orbit_class_type": "AMO",
            "orbit_class_description": "Near-Earth asteroid orbits similar to that of 1221 Amor",
            "orbit_class_range": "1.017 AU < q (perihelion) < 1.3 AU"
        }
    },
    "is_sentry_object": false
}